MEAN_MOTION;ECCENTRICITY;INCLINATION;RA_OF_ASC_NODE;ARG_OF_PERICENTER;MEAN_ANOMALY;BSTAR;MEAN_MOTION_DOT;MEAN_MOTION_DDOT;TYPE
0.99101477;0.0022816;14.9332;15.5799;35.6146;104.3555;0;3.3E-7;0;Intelsat
0.99101474;0.002282;14.9333;15.5785;35.6302;158.636;0;3.5E-7;0;Intelsat
0.99101549;0.0022847;14.9336;15.5693;35.7451;140.5584;0;4.3E-7;0;Intelsat
0.99101732;0.0022874;14.934;15.5597;35.8461;138.7254;0;4.8E-7;0;Intelsat
0.99101753;0.0022875;14.934;15.5591;35.8565;161.3715;0;4.9E-7;0;Intelsat
0.99101942;0.0022898;14.9343;15.5502;35.9428;136.9363;0;4.9E-7;0;Intelsat
0.9910265;0.0022954;14.935;15.5305;36.1233;158.4361;0;3.9E-7;0;Intelsat
0.9910265;0.0022954;14.935;15.5305;36.1233;158.4361;0;4.0E-7;0;Intelsat
0.99102985;0.0022983;14.9352;15.5221;36.2003;114.8804;0;3.1E-7;0;Intelsat
0.99103362;0.0023017;14.9356;15.5118;36.2524;138.7399;0;1.7E-7;0;Intelsat
0.9910338;0.0023018;14.9356;15.5114;36.2511;155.0938;0;1.7E-7;0;Intelsat
0.99103847;0.0023056;14.9359;15.5019;36.3215;153.4399;0;1.0E-8;0;Intelsat
0.99104328;0.0023101;14.9363;15.492;36.3911;169.7225;0;-1.8E-7;0;Intelsat
0.99104777;0.0023144;14.9366;15.483;36.4623;149.9318;0;-3.7E-7;0;Intelsat
0.99105185;0.0023199;14.9369;15.4736;36.5514;148.1373;0;-5.8E-7;0;Intelsat
0.99105613;0.0023256;14.9372;15.4634;36.641;172.4546;0;-8.1E-7;0;Intelsat
0.99106029;0.0023316;14.9375;15.4547;36.7477;144.477;0;-1.02E-6;0;Intelsat
0.99106564;0.0023427;14.9381;15.4377;36.9637;73.9162;0;-1.42E-6;0;Intelsat
0.99106654;0.0023447;14.9382;15.4355;37.0076;155.3356;0;-1.46E-6;0;Intelsat
0.9910691;0.00235;14.9385;15.4262;37.1182;151.8624;0;-1.67E-6;0;Intelsat
0.99107179;0.0023559;14.9388;15.4165;37.2633;160.2903;0;-1.87E-6;0;Intelsat
0.99107179;0.0023559;14.9388;15.4165;37.2633;160.2903;0;-1.87E-6;0;Intelsat
0.99107358;0.002362;14.9392;15.4073;37.4166;152.597;0;-2.04E-6;0;Intelsat
0.99107358;0.0023684;14.9395;15.3979;37.5985;154.9102;0;-2.19E-6;0;Intelsat
0.99107408;0.0023736;14.9398;15.3883;37.7657;162.5402;0;-2.33E-6;0;Intelsat
0.99107371;0.0023798;14.9401;15.3791;37.9702;155.184;0;-2.44E-6;0;Intelsat
0.99107145;0.0023904;14.9408;15.3604;38.3764;151.3547;0;-2.58E-6;0;Intelsat
0.99106919;0.0023948;14.9411;15.3509;38.5909;152.2793;0;-2.61E-6;0;Intelsat
0.99106639;0.0023987;14.9414;15.3412;38.8104;163.9693;0;-2.62E-6;0;Intelsat
0.99106484;0.0024006;14.9418;15.3299;39.0253;235.4033;0;-2.6E-6;0;Intelsat
0.99106167;0.0023998;14.942;15.323;39.0649;134.7624;0;-2.57E-6;0;Intelsat
0.99105813;0.0024015;14.9423;15.3133;39.2373;141.9939;0;-2.51E-6;0;Intelsat
0.99105433;0.0024031;14.9426;15.3038;39.3955;140.1179;0;-2.42E-6;0;Intelsat
0.99105108;0.0024031;14.9427;15.2943;39.4896;138.3123;0;-2.31E-6;0;Intelsat
0.99104683;0.0024042;14.943;15.2842;39.6019;159.4833;0;-2.16E-6;0;Intelsat
0.99104358;0.0024053;14.9433;15.2754;39.7148;134.6714;0;-2.01E-6;0;Intelsat
0.99103929;0.0024068;14.9436;15.2657;39.8155;144.2417;0;-1.83E-6;0;Intelsat
0.99103613;0.0024065;14.944;15.2555;39.8002;171.9802;0;-1.62E-6;0;Intelsat
0.99103357;0.0024078;14.9443;15.2472;39.8749;129.3837;0;-1.44E-6;0;Intelsat
0.99103041;0.0024102;14.9446;15.2374;39.9793;143.4925;0;-1.21E-6;0;Intelsat
0.99102722;0.0024122;14.9449;15.228;40.0255;141.5775;0;-1.0E-6;0;Intelsat
0.99102527;0.0024159;14.9451;15.2184;40.155;149.4655;0;-7.7E-7;0;Intelsat
0.99102421;0.0024189;14.9453;15.2152;40.2282;275.3636;0;-6.9E-7;0;Intelsat
0.99102353;0.0024217;14.9456;15.2078;40.3232;195.8959;0;-5.2E-7;0;Intelsat
0.9910219;0.0024254;14.9458;15.1984;40.4217;197.0642;0;-3.1E-7;0;Intelsat
0.9910211;0.0024303;14.9462;15.1869;40.5677;279.5516;0;-8.0E-8;0;Intelsat
0.99102074;0.0024316;14.9464;15.181;40.627;142.7195;0;3.0E-8;0;Intelsat
0.99102151;0.0024361;14.9467;15.1718;40.761;140.2466;0;1.8E-7;0;Intelsat
0.99102269;0.0024399;14.9469;15.1628;40.8983;127.6124;0;3.1E-7;0;Intelsat
0.9910226;0.0024405;14.947;15.1616;40.9215;173.6174;0;3.2E-7;0;Intelsat
0.9910256;0.0024477;14.9475;15.1439;41.215;134.5743;0;4.8E-7;0;Intelsat
0.99102785;0.0024511;14.9478;15.1346;41.4071;132.6783;0;5.2E-7;0;Intelsat
0.99103086;0.0024542;14.9481;15.1237;41.6123;190.8129;0;5.1E-7;0;Intelsat
0.99103456;0.002457;14.9483;15.1142;41.8117;195.5949;0;4.6E-7;0;Intelsat
0.99103822;0.0024591;14.9486;15.1054;41.9908;172.8462;0;3.8E-7;0;Intelsat
0.99103971;0.0024595;14.9487;15.1016;42.0601;318.4646;0;3.3E-7;0;Intelsat
0.99104166;0.0024611;14.9488;15.0964;42.1751;155.1617;0;2.6E-7;0;Intelsat
0.99104603;0.002463;14.9491;15.0872;42.4234;148.5934;0;1.0E-7;0;Intelsat
0.99105005;0.0024637;14.9493;15.0793;42.5557;89.9139;0;-6.0E-8;0;Intelsat
0.99105481;0.0024637;14.9496;15.0683;42.7293;147.1594;0;-3.3E-7;0;Intelsat
0.99105903;0.0024634;14.9499;15.0587;42.929;150.6528;0;-5.8E-7;0;Intelsat
0.99106351;0.0024632;14.9501;15.0495;43.1309;141.0556;0;-8.5E-7;0;Intelsat
0.99106703;0.0024622;14.9504;15.04;43.2498;138.7375;0;-1.13E-6;0;Intelsat
0.99106899;0.0024616;14.9505;15.0354;43.3158;313.0912;0;-1.27E-6;0;Intelsat
0.991071;0.0024612;14.9507;15.0306;43.4063;137.3535;0;-1.42E-6;0;Intelsat
0.99107402;0.0024603;14.9509;15.0212;43.5398;135.53;0;-1.71E-6;0;Intelsat
0.99107741;0.0024596;14.9512;15.0113;43.6991;150.2283;0;-1.99E-6;0;Intelsat
0.99107932;0.002459;14.9515;14.9977;43.8618;310.9221;0;-2.37E-6;0;Intelsat
0.99108003;0.0024587;14.9517;14.993;43.904;130.069;0;-2.48E-6;0;Intelsat
0.99108108;0.0024599;14.9521;14.9731;44.1232;169.4541;0;-2.88E-6;0;Intelsat
0.99108013;0.0024605;14.9524;14.9643;44.2152;147.59;0;-3.01E-6;0;Intelsat
0.99107953;0.0024617;14.9526;14.9548;44.3209;148.3769;0;-3.1E-6;0;Intelsat
0.99107746;0.0024631;14.9528;14.9455;44.4185;146.5692;0;-3.15E-6;0;Intelsat
0.9910742;0.0024647;14.9531;14.9361;44.5171;144.7613;0;-3.16E-6;0;Intelsat
0.99107138;0.002467;14.9533;14.9268;44.6394;142.9299;0;-3.12E-6;0;Intelsat
0.99106723;0.0024708;14.9535;14.9173;44.754;141.1345;0;-3.03E-6;0;Intelsat
0.99106036;0.0024741;14.9539;14.9033;45.0745;318.2029;0;-2.83E-6;0;Intelsat
0.99105842;0.0024751;14.954;14.8986;45.1596;137.2017;0;-2.74E-6;0;Intelsat
0.9910542;0.002477;14.9543;14.8892;45.3217;135.4346;0;-2.54E-6;0;Intelsat
0.99104623;0.0024783;14.9546;14.8752;45.5934;312.5546;0;-2.18E-6;0;Intelsat
0.99104316;0.0024793;14.9547;14.8706;45.6517;131.6788;0;-2.05E-6;0;Intelsat
0.99104067;0.0024791;14.9549;14.8659;45.7498;310.6527;0;-1.92E-6;0;Intelsat
0.9910341;0.0024815;14.9552;14.8517;46.0246;127.8246;0;-1.49E-6;0;Intelsat
0.99103002;0.002481;14.9555;14.8423;46.2326;125.9039;0;-1.21E-6;0;Intelsat
0.99102773;0.0024801;14.9556;14.8376;46.3222;304.8996;0;-1.08E-6;0;Intelsat
0.99102399;0.0024795;14.9559;14.8281;46.5019;303.0203;0;-8.0E-7;0;Intelsat
0.99102227;0.0024784;14.956;14.8233;46.6333;130.9963;0;-6.7E-7;0;Intelsat
0.9910197;0.0024769;14.9563;14.8134;46.7955;145.6768;0;-4.1E-7;0;Intelsat
0.99101784;0.0024752;14.9565;14.8038;46.9402;143.8094;0;-1.9E-7;0;Intelsat
0.99101784;0.0024752;14.9565;14.8038;46.9402;143.8094;0;-1.9E-7;0;Intelsat
0.99101657;0.0024729;14.9567;14.7931;47.0866;192.1928;0;2.0E-8;0;Intelsat
0.99101613;0.0024699;14.9569;14.785;47.2676;140.0316;0;1.6E-7;0;Intelsat
0.99101609;0.0024664;14.9572;14.7755;47.4378;138.1419;0;2.8E-7;0;Intelsat
0.99101617;0.0024658;14.9573;14.7707;47.5115;317.1837;0;3.3E-7;0;Intelsat
0.99101769;0.0024627;14.9575;14.7613;47.6257;315.3274;0;4.1E-7;0;Intelsat
0.9910194;0.0024599;14.9578;14.7518;47.7415;313.4976;0;4.4E-7;0;Intelsat
0.99102245;0.002457;14.958;14.7424;47.8617;311.642;0;4.4E-7;0;Intelsat
0.99102399;0.0024557;14.9581;14.7377;47.8989;130.7671;0;4.3E-7;0;Intelsat
0.9910274;0.0024546;14.9583;14.7284;47.9623;128.9824;0;3.7E-7;0;Intelsat
0.99103089;0.0024528;14.9585;14.7189;48.058;127.1713;0;2.8E-7;0;Intelsat
0.99103527;0.0024508;14.9588;14.7096;48.1901;125.3138;0;1.6E-7;0;Intelsat
0.99103969;0.0024497;14.959;14.7001;48.2939;123.4961;0;1.0E-8;0;Intelsat
0.99104436;0.0024489;14.9592;14.6907;48.4075;121.6576;0;-1.6E-7;0;Intelsat
0.99104923;0.0024494;14.9594;14.6801;48.5026;167.3461;0;-3.8E-7;0;Intelsat
0.99105336;0.0024486;14.9596;14.6713;48.6382;143.5203;0;-5.7E-7;0;Intelsat
0.99105755;0.0024483;14.9598;14.6619;48.7692;141.6928;0;-7.9E-7;0;Intelsat
0.99106324;0.0024474;14.9602;14.6478;48.9877;318.8672;0;-1.12E-6;0;Intelsat
0.99106492;0.002448;14.9603;14.6431;49.0408;137.9865;0;-1.23E-6;0;Intelsat
0.99106634;0.0024469;14.9604;14.6388;49.1252;300.3096;0;-1.33E-6;0;Intelsat
0.99106945;0.0024465;14.9606;14.6292;49.2705;309.8677;0;-1.55E-6;0;Intelsat
0.99107188;0.0024458;14.9608;14.6197;49.4224;311.4471;0;-1.76E-6;0;Intelsat
0.99107327;0.0024466;14.9609;14.6149;49.51;132.4186;0;-1.86E-6;0;Intelsat
0.99107462;0.0024456;14.9611;14.6055;49.6717;130.5153;0;-2.04E-6;0;Intelsat
0.99107479;0.0024431;14.9613;14.6008;49.7662;309.5469;0;-2.13E-6;0;Intelsat
0.99107562;0.0024432;14.9614;14.596;49.8728;128.6094;0;-2.2E-6;0;Intelsat
0.9910747;0.0024416;14.9616;14.5866;50.018;126.7512;0;-2.35E-6;0;Intelsat
0.9910753;0.0024395;14.9616;14.5817;50.0915;313.5945;0;-2.42E-6;0;Intelsat
0.9910756;0.002439;14.9617;14.5772;50.2046;124.8716;0;-2.47E-6;0;Intelsat
0.99107479;0.0024362;14.9619;14.5678;50.3682;116.527;0;-2.57E-6;0;Intelsat
0.99107314;0.0024344;14.962;14.5629;50.4258;302.0456;0;-2.61E-6;0;Intelsat
0.9910716;0.0024312;14.9622;14.5533;50.578;300.1937;0;-2.67E-6;0;Intelsat
0.99107071;0.0024301;14.9623;14.5485;50.6508;119.2997;0;-2.69E-6;0;Intelsat
0.99106798;0.0024276;14.9626;14.539;50.7423;117.4904;0;-2.71E-6;0;Intelsat
0.99106552;0.0024259;14.9627;14.5335;50.8124;322.064;0;-2.71E-6;0;Intelsat
0.99106345;0.0024179;14.9629;14.524;51.0389;320.1369;0;-2.68E-6;0;Intelsat
0.99106038;0.0024129;14.9631;14.5145;51.1617;318.2975;0;-2.62E-6;0;Intelsat
0.99105834;0.0024102;14.9632;14.5098;51.1998;137.4448;0;-2.58E-6;0;Intelsat
0.99105673;0.002408;14.9633;14.5048;51.2645;324.8239;0;-2.53E-6;0;Intelsat
0.99105289;0.0024032;14.9635;14.4955;51.37;318.584;0;-2.42E-6;0;Intelsat
0.99104956;0.0023991;14.9637;14.4862;51.4417;312.8648;0;-2.28E-6;0;Intelsat
0.99104128;0.002391;14.9642;14.4672;51.6113;309.2813;0;-1.93E-6;0;Intelsat
0.99103801;0.0023896;14.9644;14.4581;51.6357;295.5948;0;-1.73E-6;0;Intelsat
